[{"OBJECT_NAME":"FLOCK 4H-13","OBJECT_ID":"2025-276BC","EPOCH":"2026-03-09T18:22:51.517056","MEAN_MOTION":15.1947635,"ECCENTRICITY":7.13e-6,"INCLINATION":97.429,"RA_OF_ASC_NODE":144.1574,"ARG_OF_PERICENTER":66.765,"MEAN_ANOMALY":293.3593,"EPHEMERIS_TYPE":0,"CLASSIFICATION_TYPE":"U","NORAD_CAT_ID":66716,"ELEMENT_SET_NO":999,"REV_AT_EPOCH":1533,"BSTAR":0.00037410092,"MEAN_MOTION_DOT":7.871e-5,"MEAN_MOTION_DDOT":0},{"OBJECT_NAME":"FLOCK 4H-29","OBJECT_ID":"2025-276BU","EPOCH":"2026-03-09T18:19:22.672704","MEAN_MOTION":15.1849364,"ECCENTRICITY":0.00036497,"INCLINATION":97.4237,"RA_OF_ASC_NODE":143.9355,"ARG_OF_PERICENTER":34.6644,"MEAN_ANOMALY":325.4828,"EPHEMERIS_TYPE":0,"CLASSIFICATION_TYPE":"U","NORAD_CAT_ID":66732,"ELEMENT_SET_NO":999,"REV_AT_EPOCH":1532,"BSTAR":0.00039233753,"MEAN_MOTION_DOT":8.028e-5,"MEAN_MOTION_DDOT":0}]
