FLOCK 4H-13             
1 66716U 25276BC  26068.76587403  .00007871  00000+0  37410-3 0  9990
2 66716  97.4290 144.1574 0000071  66.7650 293.3593 15.19476350 15330
FLOCK 4H-29             
1 66732U 25276BU  26068.76345685  .00008028  00000+0  39234-3 0  9993
2 66732  97.4237 143.9355 0003650  34.6644 325.4828 15.18493639 15321
